CARTOSAT-2F             
1 43111U 18004A   20178.87528731  .00000279  00000-0  16393-4 0  9996
2 43111  97.3839 238.3435 0005630  38.7238  48.5262 15.19268260136146
PSLV DEB                
1 43112U 18004B   20178.43890363  .00001707  00000-0  69398-4 0  9992
2 43112  97.4520 250.4936 0009779  10.0449 350.0983 15.25900093136461
LEO VANTAGE 1           
1 43113U 18004C   20178.72381473 -.00000049  00000-0 -60977-5 0  9997
2 43113  99.3748 234.8216 0005994  48.9384 311.2280 13.69841901123435
ICEYE-X1                
1 43114U 18004D   20178.71105492  .00000570  00000-0  26919-4 0  9996
2 43114  97.4445 248.7839 0010326  19.1894 340.9730 15.23394852136405
CARBONITE 2             
1 43115U 18004E   20178.71222448  .00000242  00000-0  13432-4 0  9990
2 43115  97.4430 248.2657 0010604  21.8274 338.3412 15.22635831136383
INS-1C                  
1 43116U 18004F   20178.75181793  .00000672  00000-0  30786-4 0  9990
2 43116  97.4519 250.0717 0009918  23.3439 336.8246 15.23891143136453
CORVUS BC3              
1 43118U 18004H   20178.16311157  .00000475  00000-0  22962-4 0  9994
2 43118  97.4434 248.3648 0011048  30.5748 329.6130 15.23379287136322
FLOCK 3P'-3             
1 43119U 18004J   20178.42870046  .00000559  00000-0  26448-4 0  9997
2 43119  97.4503 249.0683 0010846  30.8036 329.3835 15.23399044136361
FLOCK 3P'-2             
1 43120U 18004K   20178.47720587  .00000470  00000-0  22863-4 0  9997
2 43120  97.4506 249.0230 0010827  30.9685 329.2188 15.23213294136366
FLOCK 3P'-1             
1 43121U 18004L   20178.68588427  .00001221  00000-0  52261-4 0  9996
2 43121  97.4506 249.9331 0010383  28.2285 331.9513 15.24685553136376
FLOCK 3P'-4             
1 43122U 18004M   20178.27884603  .00000449  00000-0  21955-4 0  9994
2 43122  97.4516 248.8821 0010750  33.5768 326.6148 15.23215236136330
LEMUR-2-MCCAFFERTY      
1 43123U 18004N   20178.47260442  .00001108  00000-0  46718-4 0  9993
2 43123  97.4488 250.5447 0010112  28.1126 332.0656 15.25391335136470
LEMUR-2-PETERWEBSTER    
1 43124U 18004P   20178.72750656  .00001046  00000-0  44371-4 0  9997
2 43124  97.4491 250.6834 0010092  26.2084 333.9663 15.25316446136507
LEMUR-2-BROWNCOW        
1 43125U 18004Q   20178.46302441  .00001308  00000-0  54096-4 0  9990
2 43125  97.4499 250.7376 0009922  28.1316 332.0456 15.25742816136488
LEMUR-2-DAVEWILSON      
1 43126U 18004R   20178.70957762  .00001267  00000-0  52670-4 0  9990
2 43126  97.4499 250.8780 0009918  27.7184 332.4581 15.25619564136512
DEMOSAT 2               
1 43127U 18004S   20178.47955708  .00000510  00000-0  24234-4 0  9998
2 43127  97.4446 249.0784 0010436  31.6024 328.5838 15.23638723136396
MICROSAT-TD             
1 43128U 18004T   20178.71406336  .00024808  00000-0  12131-3 0  9992
2 43128  96.7496 231.0322 0008717 120.1586 240.0549 15.82235778140850
ARKYD 6A                
1 43130U 18004V   20178.72986707  .00000628  00000-0  28936-4 0  9996
2 43130  97.4460 249.6150 0010404  30.8195 329.3651 15.23928735136447
MICROMAS-2A             
1 43131U 18004W   20178.50424984  .00001109  00000-0  46866-4 0  9994
2 43131  97.4483 250.4663 0009783  29.5744 330.6046 15.25316450136478
PICSAT                  
1 43132U 18004X   20178.50413654  .00000814  00000-0  36064-4 0  9998
2 43132  97.4468 249.7895 0010262  31.2950 328.8896 15.24437915136430
CNUSAIL-1               
1 43133U 18004Y   20178.47931466  .00000547  00000-0  25659-4 0  9992
2 43133  97.4454 249.2918 0010328  32.2538 327.9329 15.23837892136408
OBJECT Z                
1 43134U 18004Z   20178.22134046  .00000680  00000-0  30823-4 0  9992
2 43134  97.4464 249.3876 0010151  33.0097 327.1772 15.24221920136388
OBJECT AA               
1 43135U 18004AA  20178.26743168  .00000921  00000-0  40109-4 0  9994
2 43135  97.4473 249.8081 0010068  32.6476 327.5382 15.24735983136419
OBJECT AB               
1 43136U 18004AB  20178.43620384  .00001027  00000-0  43987-4 0  9993
2 43136  97.4485 250.2560 0009830  32.1236 328.0599 15.25038563136456
FOX-1D (AO-92)          
1 43137U 18004AC  20178.47861156  .00000639  00000-0  29196-4 0  9996
2 43137  97.4453 249.5784 0009950  33.6072 326.5795 15.24139450136422
STEP CUBE LAB           
1 43138U 18004AD  20178.23696239  .00001019  00000-0  43515-4 0  9993
2 43138  97.4482 250.2004 0009644  33.7475 326.4375 15.25144273136431
SPACEBEE-4              
1 43139U 18004AE  20178.33383104  .00001743  00000-0  69304-4 0  9997
2 43139  97.4519 251.4992 0009153  31.5713 328.6073 15.26617826136505
SPACEBEE-3              
1 43140U 18004AF  20178.46952438  .00002290  00000-0  87779-4 0  9999
2 43140  97.4530 252.3348 0008724  30.5500 329.6246 15.27526038136576
SPACEBEE-2              
1 43141U 18004AG  20178.44728884  .00002352  00000-0  89258-4 0  9997
2 43141  97.4543 252.5770 0008658  29.9483 330.2250 15.27833645136589
SPACEBEE-1              
1 43142U 18004AH  20178.47842508  .00002409  00000-0  90375-4 0  9996
2 43142  97.4548 252.8738 0008588  29.6816 330.4909 15.28193881136597
CICERO 7                
1 43143U 18004AJ  20178.43956133  .00001033  00000-0  43817-4 0  9994
2 43143  97.4463 250.5824 0008311  39.9416 320.2432 15.25351138136483
TYVAK-61C               
1 43144U 18004AK  20178.73598022  .00001068  00000-0  44515-4 0  9991
2 43144  97.4497 251.5910 0008869  42.5691 317.6233 15.25877838136569
